[2867steins]
orbit_SemiMajorAxis = 2.3636411000000002
radius = 11
orbit_AscendingNode = 55.36542
slope_parameter = 0.14999999999999999
minor_planet_number = 2867
orbit_MeanAnomaly = 127.95247999999999
orbit_visualization_period = 1327.3049880151268
orbit_ArgOfPericenter = 251.10757000000001
absolute_magnitude = 12.6
orbit_Inclination = 9.9352699999999992
orbit_Eccentricity = 0.1457744
albedo = 0.3
orbit_MeanMotion = 0.27122627999999999
coord_func=comet_orbit
type = asteroid
name = Steins
orbit_Epoch = 2458000.5
rot_pole_ra=91
rot_pole_de=-62
rot_pole_w0=321.76
rot_pole_w1=1428.09917

[21lutetia]
orbit_SemiMajorAxis = 2.4344532999999999
radius = 48
color_index_bv=0.686
spec_t=M
spec_b=Xk
orbit_AscendingNode = 80.878349999999998
slope_parameter = 0.11
minor_planet_number = 21
orbit_MeanAnomaly = 188.66202999999999
orbit_visualization_period = 1387.3965133277534
orbit_ArgOfPericenter = 249.98850999999999
absolute_magnitude = 7.35
orbit_Inclination = 3.0637300000000001
orbit_Eccentricity = 0.16447870000000001
albedo = 0.2212
orbit_MeanMotion = 0.25947881
coord_func=comet_orbit
type = asteroid
name = Lutetia
orbit_Epoch = 2458000.5

[162173ryugu]
absolute_magnitude = 19.3
orbit_visualization_period = 473.8835763858008
spec_b=Cg
radius = 0.435
type = asteroid
name = Ryugu
minor_planet_number = 162173
orbit_Eccentricity = 0.1903608
orbit_MeanMotion = 0.75968028
orbit_ArgOfPericenter = 211.45718
slope_parameter = 0.15
orbit_AscendingNode = 251.58763
orbit_MeanAnomaly = 249.80719
orbit_SemiMajorAxis = 1.1895485
orbit_Epoch = 2458600.5
albedo = 0.04
orbit_Inclination = 5.88422
coord_func=comet_orbit
